CCSDS_OMM_VERS = 2.0
CREATION_DATE  = 
ORIGINATOR     = 

OBJECT_NAME    = TRANSPORTER-15 CW
OBJECT_ID      = 2025-276CW
CENTER_NAME    = EARTH
REF_FRAME      = TEME
TIME_SYSTEM    = UTC
MEAN_ELEMENT_THEORY = SGP/SGP4

EPOCH          = 2025-12-20T05:56:11.040864
MEAN_MOTION    = 15.18039849
ECCENTRICITY   = .000123
INCLINATION    = 97.4406
RA_OF_ASC_NODE = 65.8976
ARG_OF_PERICENTER = 137.0833
MEAN_ANOMALY   = 223.0497

EPHEMERIS_TYPE = 0
CLASSIFICATION_TYPE = U
NORAD_CAT_ID   = 66758
ELEMENT_SET_NO = 999
REV_AT_EPOCH   = 326
BSTAR          = .33106E-3
MEAN_MOTION_DOT = .6673E-4
MEAN_MOTION_DDOT = 0

CCSDS_OMM_VERS = 2.0
CREATION_DATE  = 
ORIGINATOR     = 

OBJECT_NAME    = TRANSPORTER-15 CX
OBJECT_ID      = 2025-276CX
CENTER_NAME    = EARTH
REF_FRAME      = TEME
TIME_SYSTEM    = UTC
MEAN_ELEMENT_THEORY = SGP/SGP4

EPOCH          = 2025-12-19T14:05:02.213952
MEAN_MOTION    = 15.18161392
ECCENTRICITY   = .0001493
INCLINATION    = 97.4394
RA_OF_ASC_NODE = 65.2472
ARG_OF_PERICENTER = 144.8645
MEAN_ANOMALY   = 215.2688

EPHEMERIS_TYPE = 0
CLASSIFICATION_TYPE = U
NORAD_CAT_ID   = 66759
ELEMENT_SET_NO = 999
REV_AT_EPOCH   = 316
BSTAR          = .2502E-3
MEAN_MOTION_DOT = .5044E-4
MEAN_MOTION_DDOT = 0

CCSDS_OMM_VERS = 2.0
CREATION_DATE  = 
ORIGINATOR     = 

OBJECT_NAME    = TRANSPORTER-15 CY
OBJECT_ID      = 2025-276CY
CENTER_NAME    = EARTH
REF_FRAME      = TEME
TIME_SYSTEM    = UTC
MEAN_ELEMENT_THEORY = SGP/SGP4

EPOCH          = 2025-12-20T10:38:18.216096
MEAN_MOTION    = 15.18161231
ECCENTRICITY   = .0001655
INCLINATION    = 97.4411
RA_OF_ASC_NODE = 66.0960
ARG_OF_PERICENTER = 111.8725
MEAN_ANOMALY   = 248.2685

EPHEMERIS_TYPE = 0
CLASSIFICATION_TYPE = U
NORAD_CAT_ID   = 66760
ELEMENT_SET_NO = 999
REV_AT_EPOCH   = 329
BSTAR          = .33507E-3
MEAN_MOTION_DOT = .6779E-4
MEAN_MOTION_DDOT = 0

CCSDS_OMM_VERS = 2.0
CREATION_DATE  = 
ORIGINATOR     = 

OBJECT_NAME    = TRANSPORTER-15 CZ
OBJECT_ID      = 2025-276CZ
CENTER_NAME    = EARTH
REF_FRAME      = TEME
TIME_SYSTEM    = UTC
MEAN_ELEMENT_THEORY = SGP/SGP4

EPOCH          = 2025-12-20T02:40:49.176192
MEAN_MOTION    = 15.18415140
ECCENTRICITY   = .00014913
INCLINATION    = 97.4407
RA_OF_ASC_NODE = 65.7740
ARG_OF_PERICENTER = 126.7583
MEAN_ANOMALY   = 233.3788

EPHEMERIS_TYPE = 0
CLASSIFICATION_TYPE = U
NORAD_CAT_ID   = 66761
ELEMENT_SET_NO = 999
REV_AT_EPOCH   = 324
BSTAR          = .36289085E-3
MEAN_MOTION_DOT = .7402E-4
MEAN_MOTION_DDOT = 0

CCSDS_OMM_VERS = 2.0
CREATION_DATE  = 
ORIGINATOR     = 

OBJECT_NAME    = TRANSPORTER-15 DA
OBJECT_ID      = 2025-276DA
CENTER_NAME    = EARTH
REF_FRAME      = TEME
TIME_SYSTEM    = UTC
MEAN_ELEMENT_THEORY = SGP/SGP4

EPOCH          = 2025-12-20T04:35:32.950176
MEAN_MOTION    = 15.17137750
ECCENTRICITY   = .00025207
INCLINATION    = 97.4418
RA_OF_ASC_NODE = 65.8233
ARG_OF_PERICENTER = 306.2069
MEAN_ANOMALY   = 53.8931

EPHEMERIS_TYPE = 0
CLASSIFICATION_TYPE = U
NORAD_CAT_ID   = 66762
ELEMENT_SET_NO = 999
REV_AT_EPOCH   = 325
BSTAR          = -.31238765E-2
MEAN_MOTION_DOT = -.6147E-3
MEAN_MOTION_DDOT = 0

CCSDS_OMM_VERS = 2.0
CREATION_DATE  = 
ORIGINATOR     = 

OBJECT_NAME    = TRANSPORTER-15 DB
OBJECT_ID      = 2025-276DB
CENTER_NAME    = EARTH
REF_FRAME      = TEME
TIME_SYSTEM    = UTC
MEAN_ELEMENT_THEORY = SGP/SGP4

EPOCH          = 2025-12-20T04:32:57.777504
MEAN_MOTION    = 15.17256655
ECCENTRICITY   = .00010994
INCLINATION    = 97.4430
RA_OF_ASC_NODE = 65.8296
ARG_OF_PERICENTER = 138.4182
MEAN_ANOMALY   = 221.7136

EPHEMERIS_TYPE = 0
CLASSIFICATION_TYPE = U
NORAD_CAT_ID   = 66763
ELEMENT_SET_NO = 999
REV_AT_EPOCH   = 325
BSTAR          = -.41962283E-2
MEAN_MOTION_DOT = -.82583E-3
MEAN_MOTION_DDOT = 0

CCSDS_OMM_VERS = 2.0
CREATION_DATE  = 
ORIGINATOR     = 

OBJECT_NAME    = TRANSPORTER-15 DC
OBJECT_ID      = 2025-276DC
CENTER_NAME    = EARTH
REF_FRAME      = TEME
TIME_SYSTEM    = UTC
MEAN_ELEMENT_THEORY = SGP/SGP4

EPOCH          = 2025-12-20T12:21:59.442048
MEAN_MOTION    = 15.17675820
ECCENTRICITY   = .0001786
INCLINATION    = 97.4419
RA_OF_ASC_NODE = 66.1529
ARG_OF_PERICENTER = 204.2227
MEAN_ANOMALY   = 155.8923

EPHEMERIS_TYPE = 0
CLASSIFICATION_TYPE = U
NORAD_CAT_ID   = 66764
ELEMENT_SET_NO = 999
REV_AT_EPOCH   = 330
BSTAR          = .2837E-3
MEAN_MOTION_DOT = .5649E-4
MEAN_MOTION_DDOT = 0

CCSDS_OMM_VERS = 2.0
CREATION_DATE  = 
ORIGINATOR     = 

OBJECT_NAME    = TRANSPORTER-15 DD
OBJECT_ID      = 2025-276DD
CENTER_NAME    = EARTH
REF_FRAME      = TEME
TIME_SYSTEM    = UTC
MEAN_ELEMENT_THEORY = SGP/SGP4

EPOCH          = 2025-12-20T02:36:39.213216
MEAN_MOTION    = 15.18662089
ECCENTRICITY   = .00017759
INCLINATION    = 97.4432
RA_OF_ASC_NODE = 65.7842
ARG_OF_PERICENTER = 122.5076
MEAN_ANOMALY   = 237.6330

EPHEMERIS_TYPE = 0
CLASSIFICATION_TYPE = U
NORAD_CAT_ID   = 66765
ELEMENT_SET_NO = 999
REV_AT_EPOCH   = 324
BSTAR          = .39266408E-3
MEAN_MOTION_DOT = .8073E-4
MEAN_MOTION_DDOT = 0

CCSDS_OMM_VERS = 2.0
CREATION_DATE  = 
ORIGINATOR     = 

OBJECT_NAME    = TRANSPORTER-15 DE
OBJECT_ID      = 2025-276DE
CENTER_NAME    = EARTH
REF_FRAME      = TEME
TIME_SYSTEM    = UTC
MEAN_ELEMENT_THEORY = SGP/SGP4

EPOCH          = 2025-12-20T10:34:18.267744
MEAN_MOTION    = 15.18376220
ECCENTRICITY   = .0002043
INCLINATION    = 97.4373
RA_OF_ASC_NODE = 66.0895
ARG_OF_PERICENTER = 89.4628
MEAN_ANOMALY   = 270.6840

EPHEMERIS_TYPE = 0
CLASSIFICATION_TYPE = U
NORAD_CAT_ID   = 66766
ELEMENT_SET_NO = 999
REV_AT_EPOCH   = 329
BSTAR          = .33076E-3
MEAN_MOTION_DOT = .6733E-4
MEAN_MOTION_DDOT = 0

CCSDS_OMM_VERS = 2.0
CREATION_DATE  = 
ORIGINATOR     = 

OBJECT_NAME    = TRANSPORTER-15 DF
OBJECT_ID      = 2025-276DF
CENTER_NAME    = EARTH
REF_FRAME      = TEME
TIME_SYSTEM    = UTC
MEAN_ELEMENT_THEORY = SGP/SGP4

EPOCH          = 2025-12-20T10:35:17.761920
MEAN_MOTION    = 15.18252938
ECCENTRICITY   = .0002177
INCLINATION    = 97.4391
RA_OF_ASC_NODE = 66.0905
ARG_OF_PERICENTER = 96.1826
MEAN_ANOMALY   = 263.9656

EPHEMERIS_TYPE = 0
CLASSIFICATION_TYPE = U
NORAD_CAT_ID   = 66767
ELEMENT_SET_NO = 999
REV_AT_EPOCH   = 329
BSTAR          = .67833E-4
MEAN_MOTION_DOT = .1322E-4
MEAN_MOTION_DDOT = 0

CCSDS_OMM_VERS = 2.0
CREATION_DATE  = 
ORIGINATOR     = 

OBJECT_NAME    = TRANSPORTER-15 DG
OBJECT_ID      = 2025-276DG
CENTER_NAME    = EARTH
REF_FRAME      = TEME
TIME_SYSTEM    = UTC
MEAN_ELEMENT_THEORY = SGP/SGP4

EPOCH          = 2025-12-20T10:32:42.406944
MEAN_MOTION    = 15.18429861
ECCENTRICITY   = .0001962
INCLINATION    = 97.4316
RA_OF_ASC_NODE = 66.0947
ARG_OF_PERICENTER = 82.5638
MEAN_ANOMALY   = 277.5819

EPHEMERIS_TYPE = 0
CLASSIFICATION_TYPE = U
NORAD_CAT_ID   = 66768
ELEMENT_SET_NO = 999
REV_AT_EPOCH   = 329
BSTAR          = -.11941E-2
MEAN_MOTION_DOT = -.24544E-3
MEAN_MOTION_DDOT = 0

CCSDS_OMM_VERS = 2.0
CREATION_DATE  = 
ORIGINATOR     = 

OBJECT_NAME    = TRANSPORTER-15 DH
OBJECT_ID      = 2025-276DH
CENTER_NAME    = EARTH
REF_FRAME      = TEME
TIME_SYSTEM    = UTC
MEAN_ELEMENT_THEORY = SGP/SGP4

EPOCH          = 2025-12-20T10:33:43.623072
MEAN_MOTION    = 15.18375646
ECCENTRICITY   = .0002451
INCLINATION    = 97.4428
RA_OF_ASC_NODE = 66.1049
ARG_OF_PERICENTER = 113.7280
MEAN_ANOMALY   = 246.4211

EPHEMERIS_TYPE = 0
CLASSIFICATION_TYPE = U
NORAD_CAT_ID   = 66769
ELEMENT_SET_NO = 999
REV_AT_EPOCH   = 329
BSTAR          = .35943E-3
MEAN_MOTION_DOT = .7322E-4
MEAN_MOTION_DDOT = 0

