TRANSPORTER-15 CW       
1 66758U 25276CW  25354.24735001  .00006673  00000+0  33106-3 0  9992
2 66758  97.4406  65.8976 0001230 137.0833 223.0497 15.18039849  3262
TRANSPORTER-15 CX       
1 66759U 25276CX  25353.58683118  .00005044  00000+0  25020-3 0  9997
2 66759  97.4394  65.2472 0001493 144.8645 215.2688 15.18161392  3165
TRANSPORTER-15 CY       
1 66760U 25276CY  25354.44326639  .00006779  00000+0  33507-3 0  9992
2 66760  97.4411  66.0960 0001655 111.8725 248.2685 15.18161231  3290
TRANSPORTER-15 CZ       
1 66761U 25276CZ  25354.11168028  .00007402  00000+0  36289-3 0  9997
2 66761  97.4407  65.7740 0001491 126.7583 233.3788 15.18415140  3248
TRANSPORTER-15 DA       
1 66762U 25276DA  25354.19135359 -.00061470  00000+0 -31239-2 0  9993
2 66762  97.4418  65.8233 0002520 306.2069  53.8931 15.17137750  3250
TRANSPORTER-15 DB       
1 66763U 25276DB  25354.18955761 -.00082583  00000+0 -41962-2 0  9992
2 66763  97.4430  65.8296 0001099 138.4182 221.7136 15.17256655  3254
TRANSPORTER-15 DC       
1 66764U 25276DC  25354.51527132  .00005649  00000+0  28370-3 0  9992
2 66764  97.4419  66.1529 0001786 204.2227 155.8923 15.17675820  3306
TRANSPORTER-15 DD       
1 66765U 25276DD  25354.10878719  .00008073  00000+0  39266-3 0  9998
2 66765  97.4432  65.7842 0001775 122.5076 237.6330 15.18662089  3245
TRANSPORTER-15 DE       
1 66766U 25276DE  25354.44048921  .00006733  00000+0  33076-3 0  9994
2 66766  97.4373  66.0895 0002043  89.4628 270.6840 15.18376220  3292
TRANSPORTER-15 DF       
1 66767U 25276DF  25354.44117780  .00001322  00000+0  67833-4 0  9993
2 66767  97.4391  66.0905 0002177  96.1826 263.9656 15.18252938  3297
TRANSPORTER-15 DG       
1 66768U 25276DG  25354.43937971 -.00024544  00000+0 -11941-2 0  9995
2 66768  97.4316  66.0947 0001962  82.5638 277.5819 15.18429861  3295
TRANSPORTER-15 DH       
1 66769U 25276DH  25354.44008823  .00007322  00000+0  35943-3 0  9994
2 66769  97.4428  66.1049 0002451 113.7280 246.4211 15.18375646  3290
